[{"OBJECT_NAME":"STARLINK-32949","OBJECT_ID":"2025-043P","EPOCH":"2026-03-09T06:16:33.021984","MEAN_MOTION":15.27541889,"ECCENTRICITY":0.00019003,"INCLINATION":43.0039,"RA_OF_ASC_NODE":18.9239,"ARG_OF_PERICENTER":272.7351,"MEAN_ANOMALY":87.3283,"EPHEMERIS_TYPE":0,"CLASSIFICATION_TYPE":"U","NORAD_CAT_ID":63145,"ELEMENT_SET_NO":999,"REV_AT_EPOCH":5786,"BSTAR":0.0018118955,"MEAN_MOTION_DOT":0.00049878,"MEAN_MOTION_DDOT":0},{"OBJECT_NAME":"GEOSCAN 5 (RS92S5)","OBJECT_ID":"2025-155R","EPOCH":"2026-03-09T22:01:07.273920","MEAN_MOTION":15.30265233,"ECCENTRICITY":0.00070849,"INCLINATION":97.4462,"RA_OF_ASC_NODE":37.7456,"ARG_OF_PERICENTER":154.5846,"MEAN_ANOMALY":205.5745,"EPHEMERIS_TYPE":0,"CLASSIFICATION_TYPE":"U","NORAD_CAT_ID":64891,"ELEMENT_SET_NO":999,"REV_AT_EPOCH":6562,"BSTAR":0.00068639307,"MEAN_MOTION_DOT":0.00020065,"MEAN_MOTION_DDOT":0}]
